STARLINK-30589          
1 58103U 23161G   24113.38003341  .00027029  00000+0  98530-3 0  9990
2 58103  53.1013 111.2523 0001787  88.5431 271.5773 15.28005647 29370
STARLINK-30617          
1 58104U 23161H   24114.16022673 -.00000827  00000+0 -17194-4 0  9994
2 58104  53.1063 107.5877 0001763  82.0565 278.0634 15.27997388 29365
STARLINK-30616          
1 58105U 23161J   24114.15087101  .00010626  00000+0  39573-3 0  9991
2 58105  53.0996 107.5244 0001559 111.5804 248.5361 15.28021375 29369
STARLINK-30612          
1 58106U 23161K   24114.15119025  .00001253  00000+0  57941-4 0  9999
2 58106  53.1021 107.5237 0001708  92.6116 267.5078 15.28005163 29210
STARLINK-30421          
1 58107U 23161L   24113.91668981  .00094657  00000+0  33920-2 0  9992
2 58107  53.0994 108.5088 0001332 108.7917  92.1341 15.27966630  5847
STARLINK-30611          
1 58108U 23161M   24114.20688697 -.00006419  00000+0 -21934-3 0  9996
2 58108  53.0939 107.1430 0001216  77.3515 282.7620 15.28008854 29376
STARLINK-30606          
1 58109U 23161N   24114.19299940  .00019830  00000+0  72691-3 0  9999
2 58109  53.1281 107.8761 0001988 141.9999 218.1141 15.28007888 29368
STARLINK-30596          
1 58110U 23161P   24114.19766230  .00070095  00000+0  25183-2 0  9995
2 58110  53.1270 107.9106 0001959 111.3595 248.7613 15.28033681 29366
STARLINK-30595          
1 58111U 23161Q   24114.18395686  .00011625  00000+0  43174-3 0  9993
2 58111  53.1311 107.8222 0001111 101.4623 258.6501 15.28015654 29369
STARLINK-30593          
1 58112U 23161R   24114.18830589 -.00012947  00000+0 -45678-3 0  9991
2 58112  53.1281 107.8433 0001234  64.0077 296.1049 15.27933071 29470
STARLINK-30353          
1 58113U 23161S   24114.17895175  .00022908  00000+0  83666-3 0  9998
2 58113  53.1321 107.7870 0001453  65.2765 294.8386 15.28038463 29369
STARLINK-30572          
1 58114U 23161T   24114.18866147  .00002400  00000+0  99297-4 0  9990
2 58114  53.1286 107.8550 0001788  89.2546 270.8659 15.28019525 29365
STARLINK-30580          
1 58115U 23161U   24114.19800876  .00014323  00000+0  52834-3 0  9991
2 58115  53.1277 107.8971 0001315  85.7499 274.3650 15.28046625 29368
STARLINK-30493          
1 58116U 23161V   24114.17928163  .00045291  00000+0  16391-2 0  9995
2 58116  53.1248 107.7794 0002113   4.2783 355.8234 15.27992897 29361
STARLINK-30601          
1 58117U 23161W   24114.16958441  .00024212  00000+0  88350-3 0  9992
2 58117  53.1237 107.6964 0001154 148.0921 212.0149 15.28034825 29361
STARLINK-30795          
1 58118U 23162A   24113.79991235  .00036207  00000+0  26800-2 0  9998
2 58118  43.0022 260.0836 0001813 264.8515  95.2120 15.02557798 29037
STARLINK-30765          
1 58119U 23162B   24113.81765313 -.00014599  00000+0 -10682-2 0  9991
2 58119  43.0014 260.1986 0001577 269.1089  90.9573 15.02525709 29128
STARLINK-30768          
1 58120U 23162C   24113.86304828  .00030338  00000+0  22486-2 0  9990
2 58120  43.0026 259.6985 0001371 292.0510  68.0187 15.02579427 29045
STARLINK-30799          
1 58121U 23162D   24113.75006215  .00029796  00000+0  22084-2 0  9998
2 58121  43.0012 260.5508 0001688 249.2249 110.8413 15.02587521 29117
STARLINK-30759          
1 58122U 23162E   24113.72788051  .00058147  00000+0  42879-2 0  9997
2 58122  43.0027 260.4046 0001086 254.9069 105.1653 15.02500887 29107
STARLINK-30781          
1 58123U 23162F   24113.72675596  .00057757  00000+0  42594-2 0  9997
2 58123  43.0032 260.3963 0001257 269.5094  90.5605 15.02501309 29116
STARLINK-30754          
1 58124U 23162G   24113.74674338  .00025473  00000+0  18925-2 0  9994
2 58124  43.0016 260.5265 0001633 258.8213 101.2445 15.02564227 23325
STARLINK-30766          
1 58125U 23162H   24113.85639491 -.00005169  00000+0 -36798-3 0  9999
2 58125  43.0026 259.6454 0001793 253.1018 106.9627 15.02518876 29132
STARLINK-30767          
1 58126U 23162J   24113.72010328  .00060632  00000+0  44701-2 0  9994
2 58126  43.0026 260.3439 0001167 261.7098  98.3612 15.02490932 29100
STARLINK-30790          
1 58127U 23162K   24113.84971772  .00037039  00000+0  27379-2 0  9994
2 58127  43.0025 259.5918 0001722 247.1745 112.8916 15.02598886 29135
STARLINK-30787          
1 58128U 23162L   24113.77991248  .00054416  00000+0  40148-2 0  9994
2 58128  43.0028 259.9316 0001110 263.0676  97.0040 15.02510998 29125
STARLINK-30756          
1 58129U 23162M   24113.80988417  .00009672  00000+0  72998-3 0  9996
2 58129  43.0011 260.1359 0001655 235.4466 124.6221 15.02540171 29127
STARLINK-30783          
1 58130U 23162N   24113.77659824  .00045972  00000+0  33926-2 0  9991
2 58130  43.0022 259.9038 0001708 264.1728  95.8920 15.02573105 29128
STARLINK-30757          
1 58131U 23162P   24113.70678838  .00031573  00000+0  23406-2 0  9995
2 58131  43.0013 260.2406 0001728 245.8276 114.2386 15.02554974 29113
STARLINK-30770          
1 58132U 23162Q   24113.74008583  .00010756  00000+0  81011-3 0  9991
2 58132  43.0011 260.4735 0001861 258.5299 101.5334 15.02535744 29119
STARLINK-30758          
1 58133U 23162R   24113.77215440 -.00005450  00000+0 -38882-3 0  9992
2 58133  43.0027 259.8703 0001678 265.6197  94.4454 15.02524744 29128
STARLINK-30761          
1 58134U 23162S   24113.73677026  .00057454  00000+0  42271-2 0  9996
2 58134  43.0014 260.4509 0001319 287.4173  72.6525 15.02592427 29114
STARLINK-30772          
1 58135U 23162T   24113.90301061  .00031393  00000+0  23304-2 0  9999
2 58135  43.0030 259.9769 0002354 269.9288  90.1284 15.02505453 29138
STARLINK-30776          
1 58136U 23162U   24113.89966329  .00000440  00000+0  47635-4 0  9996
2 58136  43.0000 259.9464 0001415 275.6779  84.3902 15.02555872 29136
STARLINK-30782          
1 58137U 23162V   24113.76339422 -.00008239  00000+0 -59577-3 0  9994
2 58137  43.0041 260.6524 0001562 273.9270  86.1394 15.02521609 29112
STARLINK-30769          
1 58138U 23162W   24113.82321751  .00020377  00000+0  15201-2 0  9998
2 58138  43.0025 260.2392 0001374 282.8155  77.2533 15.02511670 29120
STARLINK-30775          
1 58139U 23162X   24113.82654449  .00025570  00000+0  18997-2 0  9997
2 58139  43.0014 260.2644 0001504 287.5907  72.4771 15.02562373 29128
STARLINK-30780          
1 58140U 23162Y   24113.75339707  .00029013  00000+0  21515-2 0  9994
2 58140  43.0017 260.5753 0001572 251.4845 108.5826 15.02578101 29110
STARLINK-30802          
1 58150U 23166A   24114.25001157 -.00003523  00000+0 -11437-3 0  9993
2 58150  53.1208 162.3661 0002137  94.7453 145.3382 15.28072503 28256
STARLINK-30834          
1 58151U 23166B   24114.13185572 -.00008754  00000+0 -30379-3 0  9992
2 58151  53.0995 162.0301 0001923 101.3577 258.7638 15.28010175 28240
STARLINK-30833          
1 58152U 23166C   24114.07560113  .00076721  00000+0  26972-2 0  9994
2 58152  53.1213 163.1809 0002112 309.2659  50.8153 15.28700674 28222
STARLINK-30831          
1 58153U 23166D   24113.53829032  .00004244  00000+0  16581-3 0  9990
2 58153  53.1264 165.5319 0001468 108.3081 251.8078 15.28020791 28157
STARLINK-30797          
1 58154U 23166E   24114.13150906 -.00013745  00000+0 -48462-3 0  9996
2 58154  53.0939 162.0146 0001500 118.4041 241.7109 15.28007705 28020
STARLINK-30804          
1 58155U 23166F   24113.41716432  .00027515  00000+0  10039-2 0  9995
2 58155  53.1199 166.1882 0002850  57.0472 303.0801 15.27967076 28124
STARLINK-30784          
1 58156U 23166G   24113.55735239 -.00027139  00000+0 -97197-3 0  9992
2 58156  53.1207 165.6383 0001308 102.0355 258.0791 15.27976683 27987
STARLINK-30803          
1 58157U 23166H   24114.12227325 -.00000873  00000+0 -18827-4 0  9999
2 58157  53.1242 162.7593 0001873 146.0487 214.0632 15.28025743 28013
STARLINK-30829          
1 58158U 23166J   24114.12262645 -.00005355  00000+0 -18091-3 0  9996
2 58158  53.1282 162.7888 0001831  65.1378 294.9811 15.27996917 28249
STARLINK-30788          
1 58159U 23166K   24113.52926970 -.00021780  00000+0 -77634-3 0  9996
2 58159  53.1232 165.4828 0001283  34.8578 325.2505 15.28002498 27997
STARLINK-30779          
1 58160U 23166L   24114.11293789 -.00007641  00000+0 -26361-3 0  9990
2 58160  53.1240 162.7111 0001830 100.9068 259.2138 15.28001628 28230
STARLINK-30773          
1 58161U 23166M   24114.11326390  .00012688  00000+0  46948-3 0  9994
2 58161  53.1240 162.7135 0002096  62.1896 297.9315 15.28051523 28246
STARLINK-30816          
1 58162U 23166N   24114.10824934  .00013027  00000+0  48187-3 0  9996
2 58162  53.1268 162.6839 0002509  80.9407 279.1876 15.28037340 28247
STARLINK-30763          
1 58163U 23166P   24113.54706907 -.00036047  00000+0 -12951-2 0  9991
2 58163  53.0764 161.7670 0001101  80.7754 279.3369 15.28016767 28194
STARLINK-30815          
1 58164U 23166Q   24113.51524506  .00053200  00000+0  19208-2 0  9992
2 58164  53.1251 165.3950 0001292  82.5875 277.5271 15.27998502 28145
STARLINK-30814          
1 58165U 23166R   24113.56625281  .00043330  00000+0  15651-2 0  9991
2 58165  53.1216 164.9922 0001685 101.2849 258.8340 15.28076974 28158
STARLINK-30789          
1 58166U 23166S   24113.57561475  .00019689  00000+0  72086-3 0  9993
2 58166  53.1232 165.0540 0002152 113.5278 246.5947 15.28053538 28155
STARLINK-30811          
1 58167U 23166T   24113.57128976  .00003786  00000+0  14931-3 0  9995
2 58167  53.1257 165.0218 0001368  91.3718 268.7438 15.28014996 27992
STARLINK-30812          
1 58168U 23166U   24113.44013150 -.00003908  00000+0 -12846-3 0  9990
2 58168  53.1232 165.6353 0001617 125.7917 234.3233 15.28022649 27987
STARLINK-30771          
1 58169U 23166V   24113.56660204 -.00002963  00000+0 -94328-4 0  9998
2 58169  53.1207 164.9986 0001033  93.2279 266.8839 15.28026590 28157
STARLINK-30764          
1 58170U 23166W   24113.56158836  .00026377  00000+0  96000-3 0  9994
2 58170  53.1218 164.9662 0001839 103.3486 256.7719 15.28072318 28153
